{
  "norad_id": 55179,
  "name": "ONEWEB-0719",
  "history": [
    {
      "epoch": "2026-04-11T12:26:22.409952Z",
      "apogee_km": 1195.1580037502226,
      "perigee_km": 1192.2534448811748,
      "latitude_deg": -1.678425301531047e-05,
      "longitude_deg": -7.256627971923036,
      "height_km": 1196.4578088587082,
      "semi_major_axis_km": 7571.842724315698,
      "eccentricity": 0.0001918,
      "inclination_deg": 87.9192,
      "raan_deg": 19.0734,
      "arg_perigee_deg": 84.3383,
      "mean_anomaly_deg": 275.7967,
      "mean_motion_rev_day": 13.17650967
    },
    {
      "epoch": "2026-04-13T04:32:01.641696Z",
      "apogee_km": 1195.1753131188298,
      "perigee_km": 1192.234258332417,
      "latitude_deg": 1.5937806961259526e-05,
      "longitude_deg": 109.35209490356974,
      "height_km": 1196.4502981878738,
      "semi_major_axis_km": 7571.841785725623,
      "eccentricity": 0.00019421,
      "inclination_deg": 87.9192,
      "raan_deg": 18.7422,
      "arg_perigee_deg": 84.1533,
      "mean_anomaly_deg": 275.982,
      "mean_motion_rev_day": 13.17651212
    },
    {
      "epoch": "2026-04-14T11:30:56.703744Z",
      "apogee_km": 1195.1896792877942,
      "perigee_km": 1192.2310556474304,
      "latitude_deg": -6.278576858037231e-06,
      "longitude_deg": 3.0941861483983444,
      "height_km": 1196.4487303772892,
      "semi_major_axis_km": 7571.8473674676125,
      "eccentricity": 0.00019537,
      "inclination_deg": 87.9191,
      "raan_deg": 18.4861,
      "arg_perigee_deg": 83.9105,
      "mean_anomaly_deg": 276.2249,
      "mean_motion_rev_day": 13.17649755
    },
    {
      "epoch": "2026-04-15T18:29:51.823680Z",
      "apogee_km": 1195.1906642929598,
      "perigee_km": 1192.2346141937996,
      "latitude_deg": 3.0488836996291388e-05,
      "longitude_deg": -103.16396120922198,
      "height_km": 1196.4409841342076,
      "semi_major_axis_km": 7571.849639243379,
      "eccentricity": 0.0001952,
      "inclination_deg": 87.9194,
      "raan_deg": 18.23,
      "arg_perigee_deg": 83.5145,
      "mean_anomaly_deg": 276.6209,
      "mean_motion_rev_day": 13.17649162
    },
    {
      "epoch": "2026-04-16T10:54:00.008064Z",
      "apogee_km": 1195.263270175934,
      "perigee_km": 1192.1815234014412,
      "latitude_deg": 7.833901269549394e-05,
      "longitude_deg": 9.99332280338513,
      "height_km": 1196.4479420060266,
      "semi_major_axis_km": 7571.859396788687,
      "eccentricity": 0.0002035,
      "inclination_deg": 87.9197,
      "raan_deg": 18.095,
      "arg_perigee_deg": 83.6813,
      "mean_anomaly_deg": 276.4551,
      "mean_motion_rev_day": 13.17646615
    },
    {
      "epoch": "2026-04-17T17:52:55.032960Z",
      "apogee_km": 1195.2524182892612,
      "perigee_km": 1192.1788518676312,
      "latitude_deg": 2.0940915993384946e-05,
      "longitude_deg": -96.2643313066325,
      "height_km": 1196.4529172113364,
      "semi_major_axis_km": 7571.852635078446,
      "eccentricity": 0.00020296,
      "inclination_deg": 87.9191,
      "raan_deg": 17.839,
      "arg_perigee_deg": 84.1039,
      "mean_anomaly_deg": 276.0324,
      "mean_motion_rev_day": 13.1764838
    }
  ]
}